24967,IRIDIUM 36,1997,100.25,-1.0,-,86.39,Inactive,0,LEO,USA,USA,Unknown,Unknown,Delta,1 24967U 97056C   23286.44442843  .00001262  00000+0  42421-3 0  9995,2 24967  86.3942  70.2428 0002042  96.2137 263.9293 14.36446944364227,14.36446944,0.0002042,LEO
25042,IRIDIUM 39,1997,99.49,-1.0,-,86.39,Inactive,0,LEO,USA,USA,Unknown,Unknown,Delta,1 25042U 97069D   23286.56175350  .00001551  00000+0  41685-3 0  9995,2 25042  86.3872 113.5161 0018094 183.8795 176.2271 14.47408846360292,14.47408846,0.0018094,LEO
25043,IRIDIUM 38,1997,100.21,-1.0,-,86.39,Inactive,0,LEO,USA,USA,Unknown,Unknown,Delta,1 25043U 97069E   23286.66976926  .00000904  00000+0  29905-3 0  9997,2 25043  86.3941 130.6674 0002083  24.3982 335.7313 14.36912974358226,14.36912974,0.0002083,LEO
25077,IRIDIUM 42,1997,100.33,-1.0,-,86.4,Inactive,0,LEO,PRC,USA,Unknown,Unknown,Long March,1 25077U 97077A   23286.56963246  .00000794  00000+0  27096-3 0  9999,2 25077  86.3956 136.1314 0001794  69.0421 291.0967 14.35226490353294,14.3522649,0.0001794,LEO
25078,IRIDIUM 44,1997,100.07,-1.0,-,86.39,Inactive,0,LEO,PRC,USA,Unknown,Unknown,Long March,1 25078U 97077B   23286.56060578  .00001026  00000+0  32624-3 0  9998,2 25078  86.3917 119.7078 0000905 151.3235 208.8014 14.39015475355561,14.39015475,9.05e-05,LEO
25104,IRIDIUM 45,1997,96.27,-1.0,-,86.38,Inactive,0,LEO,USA,USA,Unknown,Unknown,Delta,1 25104U 97082A   23286.61014311  .00017224  00000+0  11015-2 0  9991,2 25104  86.3784 337.8032 0181312  55.7182 306.1065 14.95824664359760,14.95824664,0.0181312,LEO
25105,IRIDIUM 24,1997,99.95,-1.0,-,86.39,Inactive,0,LEO,USA,USA,Unknown,Unknown,Delta,1 25105U 97082B   23286.60546128  .00001075  00000+0  32990-3 0  9990,2 25105  86.3940 339.7075 0009647 306.1618  53.8688 14.40774560354974,14.4077456,0.0009647,LEO
25262,IRIDIUM 51,1998,95.83,-1.0,-,86.4,Inactive,0,LEO,PRC,USA,Unknown,Unknown,Long March,1 25262U 98018A   23286.58633692  .00019541  00000+0  10816-2 0  9993,2 25262  86.3972 348.3440 0165508  10.6878 349.7800 15.02681429354130,15.02681429,0.0165508,LEO
