<?xml version="1.0" encoding="UTF-8"?>
<ndm xmlns:xsi="http://www.w3.org/2001/XMLSchema-instance" xsi:noNamespaceSchemaLocation="https://sanaregistry.org/r/ndmxml_unqualified/ndmxml-2.0.0-master-2.0.xsd">
<omm id="CCSDS_OMM_VERS" version="2.0">
<header><CREATION_DATE/><ORIGINATOR/></header><body><segment><metadata><OBJECT_NAME>IRIDIUM 36 [-]</OBJECT_NAME><OBJECT_ID>1997-056C</OBJECT_ID><CENTER_NAME>EARTH</CENTER_NAME><REF_FRAME>TEME</REF_FRAME><TIME_SYSTEM>UTC</TIME_SYSTEM><MEAN_ELEMENT_THEORY>SGP4</MEAN_ELEMENT_THEORY></metadata><data><meanElements><EPOCH>2023-10-13T10:39:58.616352</EPOCH><MEAN_MOTION>14.36446944</MEAN_MOTION><ECCENTRICITY>.0002042</ECCENTRICITY><INCLINATION>86.3942</INCLINATION><RA_OF_ASC_NODE>70.2428</RA_OF_ASC_NODE><ARG_OF_PERICENTER>96.2137</ARG_OF_PERICENTER><MEAN_ANOMALY>263.9293</MEAN_ANOMALY></meanElements><tleParameters><EPHEMERIS_TYPE>0</EPHEMERIS_TYPE><CLASSIFICATION_TYPE>U</CLASSIFICATION_TYPE><NORAD_CAT_ID>24967</NORAD_CAT_ID><ELEMENT_SET_NO>999</ELEMENT_SET_NO><REV_AT_EPOCH>36422</REV_AT_EPOCH><BSTAR>.42421E-3</BSTAR><MEAN_MOTION_DOT>.1262E-4</MEAN_MOTION_DOT><MEAN_MOTION_DDOT>0</MEAN_MOTION_DDOT></tleParameters></data></segment></body></omm>
<omm id="CCSDS_OMM_VERS" version="2.0">
<header><CREATION_DATE/><ORIGINATOR/></header><body><segment><metadata><OBJECT_NAME>IRIDIUM 39 [-]</OBJECT_NAME><OBJECT_ID>1997-069D</OBJECT_ID><CENTER_NAME>EARTH</CENTER_NAME><REF_FRAME>TEME</REF_FRAME><TIME_SYSTEM>UTC</TIME_SYSTEM><MEAN_ELEMENT_THEORY>SGP4</MEAN_ELEMENT_THEORY></metadata><data><meanElements><EPOCH>2023-10-13T13:28:55.502400</EPOCH><MEAN_MOTION>14.47408846</MEAN_MOTION><ECCENTRICITY>.0018094</ECCENTRICITY><INCLINATION>86.3872</INCLINATION><RA_OF_ASC_NODE>113.5161</RA_OF_ASC_NODE><ARG_OF_PERICENTER>183.8795</ARG_OF_PERICENTER><MEAN_ANOMALY>176.2271</MEAN_ANOMALY></meanElements><tleParameters><EPHEMERIS_TYPE>0</EPHEMERIS_TYPE><CLASSIFICATION_TYPE>U</CLASSIFICATION_TYPE><NORAD_CAT_ID>25042</NORAD_CAT_ID><ELEMENT_SET_NO>999</ELEMENT_SET_NO><REV_AT_EPOCH>36029</REV_AT_EPOCH><BSTAR>.41685E-3</BSTAR><MEAN_MOTION_DOT>.1551E-4</MEAN_MOTION_DOT><MEAN_MOTION_DDOT>0</MEAN_MOTION_DDOT></tleParameters></data></segment></body></omm>
<omm id="CCSDS_OMM_VERS" version="2.0">
<header><CREATION_DATE/><ORIGINATOR/></header><body><segment><metadata><OBJECT_NAME>IRIDIUM 38 [-]</OBJECT_NAME><OBJECT_ID>1997-069E</OBJECT_ID><CENTER_NAME>EARTH</CENTER_NAME><REF_FRAME>TEME</REF_FRAME><TIME_SYSTEM>UTC</TIME_SYSTEM><MEAN_ELEMENT_THEORY>SGP4</MEAN_ELEMENT_THEORY></metadata><data><meanElements><EPOCH>2023-10-13T16:04:28.064064</EPOCH><MEAN_MOTION>14.36912974</MEAN_MOTION><ECCENTRICITY>.0002083</ECCENTRICITY><INCLINATION>86.3941</INCLINATION><RA_OF_ASC_NODE>130.6674</RA_OF_ASC_NODE><ARG_OF_PERICENTER>24.3982</ARG_OF_PERICENTER><MEAN_ANOMALY>335.7313</MEAN_ANOMALY></meanElements><tleParameters><EPHEMERIS_TYPE>0</EPHEMERIS_TYPE><CLASSIFICATION_TYPE>U</CLASSIFICATION_TYPE><NORAD_CAT_ID>25043</NORAD_CAT_ID><ELEMENT_SET_NO>999</ELEMENT_SET_NO><REV_AT_EPOCH>35822</REV_AT_EPOCH><BSTAR>.29905E-3</BSTAR><MEAN_MOTION_DOT>.904E-5</MEAN_MOTION_DOT><MEAN_MOTION_DDOT>0</MEAN_MOTION_DDOT></tleParameters></data></segment></body></omm>
<omm id="CCSDS_OMM_VERS" version="2.0">
<header><CREATION_DATE/><ORIGINATOR/></header><body><segment><metadata><OBJECT_NAME>IRIDIUM 42 [-]</OBJECT_NAME><OBJECT_ID>1997-077A</OBJECT_ID><CENTER_NAME>EARTH</CENTER_NAME><REF_FRAME>TEME</REF_FRAME><TIME_SYSTEM>UTC</TIME_SYSTEM><MEAN_ELEMENT_THEORY>SGP4</MEAN_ELEMENT_THEORY></metadata><data><meanElements><EPOCH>2023-10-13T13:40:16.244544</EPOCH><MEAN_MOTION>14.35226490</MEAN_MOTION><ECCENTRICITY>.0001794</ECCENTRICITY><INCLINATION>86.3956</INCLINATION><RA_OF_ASC_NODE>136.1314</RA_OF_ASC_NODE><ARG_OF_PERICENTER>69.0421</ARG_OF_PERICENTER><MEAN_ANOMALY>291.0967</MEAN_ANOMALY></meanElements><tleParameters><EPHEMERIS_TYPE>0</EPHEMERIS_TYPE><CLASSIFICATION_TYPE>U</CLASSIFICATION_TYPE><NORAD_CAT_ID>25077</NORAD_CAT_ID><ELEMENT_SET_NO>999</ELEMENT_SET_NO><REV_AT_EPOCH>35329</REV_AT_EPOCH><BSTAR>.27096E-3</BSTAR><MEAN_MOTION_DOT>.794E-5</MEAN_MOTION_DOT><MEAN_MOTION_DDOT>0</MEAN_MOTION_DDOT></tleParameters></data></segment></body></omm>
<omm id="CCSDS_OMM_VERS" version="2.0">
<header><CREATION_DATE/><ORIGINATOR/></header><body><segment><metadata><OBJECT_NAME>IRIDIUM 44 [-]</OBJECT_NAME><OBJECT_ID>1997-077B</OBJECT_ID><CENTER_NAME>EARTH</CENTER_NAME><REF_FRAME>TEME</REF_FRAME><TIME_SYSTEM>UTC</TIME_SYSTEM><MEAN_ELEMENT_THEORY>SGP4</MEAN_ELEMENT_THEORY></metadata><data><meanElements><EPOCH>2023-10-13T13:27:16.339392</EPOCH><MEAN_MOTION>14.39015475</MEAN_MOTION><ECCENTRICITY>.0000905</ECCENTRICITY><INCLINATION>86.3917</INCLINATION><RA_OF_ASC_NODE>119.7078</RA_OF_ASC_NODE><ARG_OF_PERICENTER>151.3235</ARG_OF_PERICENTER><MEAN_ANOMALY>208.8014</MEAN_ANOMALY></meanElements><tleParameters><EPHEMERIS_TYPE>0</EPHEMERIS_TYPE><CLASSIFICATION_TYPE>U</CLASSIFICATION_TYPE><NORAD_CAT_ID>25078</NORAD_CAT_ID><ELEMENT_SET_NO>999</ELEMENT_SET_NO><REV_AT_EPOCH>35556</REV_AT_EPOCH><BSTAR>.32624E-3</BSTAR><MEAN_MOTION_DOT>.1026E-4</MEAN_MOTION_DOT><MEAN_MOTION_DDOT>0</MEAN_MOTION_DDOT></tleParameters></data></segment></body></omm>
<omm id="CCSDS_OMM_VERS" version="2.0">
<header><CREATION_DATE/><ORIGINATOR/></header><body><segment><metadata><OBJECT_NAME>IRIDIUM 45 [-]</OBJECT_NAME><OBJECT_ID>1997-082A</OBJECT_ID><CENTER_NAME>EARTH</CENTER_NAME><REF_FRAME>TEME</REF_FRAME><TIME_SYSTEM>UTC</TIME_SYSTEM><MEAN_ELEMENT_THEORY>SGP4</MEAN_ELEMENT_THEORY></metadata><data><meanElements><EPOCH>2023-10-13T14:38:36.364704</EPOCH><MEAN_MOTION>14.95824664</MEAN_MOTION><ECCENTRICITY>.0181312</ECCENTRICITY><INCLINATION>86.3784</INCLINATION><RA_OF_ASC_NODE>337.8032</RA_OF_ASC_NODE><ARG_OF_PERICENTER>55.7182</ARG_OF_PERICENTER><MEAN_ANOMALY>306.1065</MEAN_ANOMALY></meanElements><tleParameters><EPHEMERIS_TYPE>0</EPHEMERIS_TYPE><CLASSIFICATION_TYPE>U</CLASSIFICATION_TYPE><NORAD_CAT_ID>25104</NORAD_CAT_ID><ELEMENT_SET_NO>999</ELEMENT_SET_NO><REV_AT_EPOCH>35976</REV_AT_EPOCH><BSTAR>.11015E-2</BSTAR><MEAN_MOTION_DOT>.17224E-3</MEAN_MOTION_DOT><MEAN_MOTION_DDOT>0</MEAN_MOTION_DDOT></tleParameters></data></segment></body></omm>
<omm id="CCSDS_OMM_VERS" version="2.0">
<header><CREATION_DATE/><ORIGINATOR/></header><body><segment><metadata><OBJECT_NAME>IRIDIUM 24 [-]</OBJECT_NAME><OBJECT_ID>1997-082B</OBJECT_ID><CENTER_NAME>EARTH</CENTER_NAME><REF_FRAME>TEME</REF_FRAME><TIME_SYSTEM>UTC</TIME_SYSTEM><MEAN_ELEMENT_THEORY>SGP4</MEAN_ELEMENT_THEORY></metadata><data><meanElements><EPOCH>2023-10-13T14:31:51.854592</EPOCH><MEAN_MOTION>14.40774560</MEAN_MOTION><ECCENTRICITY>.0009647</ECCENTRICITY><INCLINATION>86.3940</INCLINATION><RA_OF_ASC_NODE>339.7075</RA_OF_ASC_NODE><ARG_OF_PERICENTER>306.1618</ARG_OF_PERICENTER><MEAN_ANOMALY>53.8688</MEAN_ANOMALY></meanElements><tleParameters><EPHEMERIS_TYPE>0</EPHEMERIS_TYPE><CLASSIFICATION_TYPE>U</CLASSIFICATION_TYPE><NORAD_CAT_ID>25105</NORAD_CAT_ID><ELEMENT_SET_NO>999</ELEMENT_SET_NO><REV_AT_EPOCH>35497</REV_AT_EPOCH><BSTAR>.3299E-3</BSTAR><MEAN_MOTION_DOT>.1075E-4</MEAN_MOTION_DOT><MEAN_MOTION_DDOT>0</MEAN_MOTION_DDOT></tleParameters></data></segment></body></omm>
<omm id="CCSDS_OMM_VERS" version="2.0">
<header><CREATION_DATE/><ORIGINATOR/></header><body><segment><metadata><OBJECT_NAME>IRIDIUM 51 [-]</OBJECT_NAME><OBJECT_ID>1998-018A</OBJECT_ID><CENTER_NAME>EARTH</CENTER_NAME><REF_FRAME>TEME</REF_FRAME><TIME_SYSTEM>UTC</TIME_SYSTEM><MEAN_ELEMENT_THEORY>SGP4</MEAN_ELEMENT_THEORY></metadata><data><meanElements><EPOCH>2023-10-13T14:04:19.509888</EPOCH><MEAN_MOTION>15.02681429</MEAN_MOTION><ECCENTRICITY>.0165508</ECCENTRICITY><INCLINATION>86.3972</INCLINATION><RA_OF_ASC_NODE>348.3440</RA_OF_ASC_NODE><ARG_OF_PERICENTER>10.6878</ARG_OF_PERICENTER><MEAN_ANOMALY>349.7800</MEAN_ANOMALY></meanElements><tleParameters><EPHEMERIS_TYPE>0</EPHEMERIS_TYPE><CLASSIFICATION_TYPE>U</CLASSIFICATION_TYPE><NORAD_CAT_ID>25262</NORAD_CAT_ID><ELEMENT_SET_NO>999</ELEMENT_SET_NO><REV_AT_EPOCH>35413</REV_AT_EPOCH><BSTAR>.10816E-2</BSTAR><MEAN_MOTION_DOT>.19541E-3</MEAN_MOTION_DOT><MEAN_MOTION_DDOT>0</MEAN_MOTION_DDOT></tleParameters></data></segment></body></omm>

</ndm>
